[{"OBJECT_NAME":"STARLINK-34957","OBJECT_ID":"2025-191K","EPOCH":"2026-03-09T14:57:25.121088","MEAN_MOTION":15.0564824,"ECCENTRICITY":0.0001967,"INCLINATION":97.6022,"RA_OF_ASC_NODE":301.5273,"ARG_OF_PERICENTER":62.8793,"MEAN_ANOMALY":297.2634,"EPHEMERIS_TYPE":0,"CLASSIFICATION_TYPE":"U","NORAD_CAT_ID":65388,"ELEMENT_SET_NO":999,"REV_AT_EPOCH":3026,"BSTAR":0.00015399,"MEAN_MOTION_DOT":2.162e-5,"MEAN_MOTION_DDOT":0},{"OBJECT_NAME":"FENGYUN 1C DEB","OBJECT_ID":"1999-025AFM","EPOCH":"2026-03-09T00:10:59.422080","MEAN_MOTION":14.62656122,"ECCENTRICITY":0.01859131,"INCLINATION":98.0774,"RA_OF_ASC_NODE":85.1868,"ARG_OF_PERICENTER":297.7723,"MEAN_ANOMALY":114.9924,"EPHEMERIS_TYPE":0,"CLASSIFICATION_TYPE":"U","NORAD_CAT_ID":30450,"ELEMENT_SET_NO":999,"REV_AT_EPOCH":797,"BSTAR":0.00091047967,"MEAN_MOTION_DOT":5.887e-5,"MEAN_MOTION_DDOT":0}]
